     2.10           G: GLONASS NAV DATA                     RINEX VERSION / TYPE
teqc  2015Jun23                         20220330 01:25:41UTCPGM / RUN BY / DATE
Linux 2.4.21-27.ELsmp|Opteron|gcc -static|Linux x86_64|=+   COMMENT
  2022     3     6   -1.210719347000D-08                    CORR TO SYSTEM TIME
                                                            END OF HEADER
18 22  3  7 21 15  0.0 1.095701009035D-04 9.094947017729D-13 7.602000000000D+04
    1.507042675781D+04 1.106272697449D+00-0.000000000000D+00 0.000000000000D+00
    1.449246386719D+04 1.685073852539D+00 9.313225746155D-10-3.000000000000D+00
    1.467208789062D+04-2.798388481140D+00-1.862645149231D-09 0.000000000000D+00
 2 22  3  7 21 15  0.0 5.118045955896D-04 9.094947017729D-13 7.611000000000D+04
   -7.440234863281D+03-3.028847694397D+00 9.313225746155D-10 0.000000000000D+00
    1.020457373047D+04-5.588340759277D-02 0.000000000000D+00-4.000000000000D+00
    2.219712841797D+04-9.972982406616D-01-2.793967723846D-09 0.000000000000D+00
18 22  3  7 21 45  0.0 1.095728948712D-04 9.094947017729D-13 7.740000000000D+04
    1.692398779297D+04 9.078378677368D-01 0.000000000000D+00 0.000000000000D+00
    1.681091601562D+04 8.867321014404D-01 1.862645149231D-09-3.000000000000D+00
    9.134874023438D+03-3.314279556274D+00-9.313225746155D-10 0.000000000000D+00
14 22  3  7 21 45  0.0 7.513258606195D-05 0.000000000000D+00 7.740000000000D+04
   -9.210532226562D+02-7.317790985107D-01 0.000000000000D+00 0.000000000000D+00
    2.051076855469D+04 1.942108154297D+00 2.793967723846D-09-7.000000000000D+00
   -1.514002294922D+04 2.673409461975D+00 0.000000000000D+00 0.000000000000D+00
13 22  3  7 21 45  0.0-1.916941255331D-05-0.000000000000D+00 7.740000000000D+04
   -1.103561572266D+04 2.736558914185D-01 9.313225746155D-10 0.000000000000D+00
    2.285514550781D+04-2.603712081909D-01 1.862645149231D-09-2.000000000000D+00
    2.510411621094D+03 3.543704986572D+00-9.313225746155D-10 0.000000000000D+00
12 22  3  7 21 45  0.0 1.736916601658D-05 0.000000000000D+00 7.740000000000D+04
   -1.432933007812D+04 1.044961929321D+00 9.313225746155D-10 0.000000000000D+00
    1.201656103516D+04-2.132678031921D+00-0.000000000000D+00-1.000000000000D+00
    1.735493554688D+04 2.343968391418D+00-1.862645149231D-09 0.000000000000D+00
17 22  3  7 21 45  0.0 5.076425150037D-04 2.728484105319D-12 7.740000000000D+04
    1.117619433594D+04-4.495925903320D-01 0.000000000000D+00 0.000000000000D+00
    2.155973339844D+04-9.878635406494D-01 2.793967723846D-09 4.000000000000D+00
   -7.747029296875D+03-3.395859718323D+00-0.000000000000D+00 0.000000000000D+00
24 22  3  7 21 45  0.0 8.335150778294D-05 1.818989403546D-12 7.740000000000D+04
   -1.517027343750D+03-1.567711830139D+00 0.000000000000D+00 0.000000000000D+00
    1.473788964844D+04-2.377009391785D+00 2.793967723846D-09 2.000000000000D+00
   -2.074403710938D+04-1.573170661926D+00 9.313225746155D-10 0.000000000000D+00
 2 22  3  7 21 45  0.0 5.118073895574D-04 9.094947017729D-13 7.746000000000D+04
   -1.259330224609D+04-2.649955749512D+00 9.313225746155D-10 0.000000000000D+00
    1.048654296875D+04 3.508529663086D-01-0.000000000000D+00-4.000000000000D+00
    1.956973681641D+04-1.903370857239D+00-1.862645149231D-09 0.000000000000D+00
18 22  3  7 22 15  0.0 1.095766201615D-04 9.094947017729D-13 7.920000000000D+04
    1.818097607422D+04 4.481754302979D-01 0.000000000000D+00 0.000000000000D+00
    1.770487646484D+04 1.217012405396D-01 2.793967723846D-09-3.000000000000D+00
    2.894192382812D+03-3.574973106384D+00-9.313225746155D-10 0.000000000000D+00
 2 22  3  7 22 15  0.0 5.118101835251D-04 9.094947017729D-13 7.920000000000D+04
   -1.683045849609D+04-2.022964477539D+00 9.313225746155D-10 0.000000000000D+00
    1.137421679688D+04 6.028070449829D-01-0.000000000000D+00-4.000000000000D+00
    1.543247509766D+04-2.664002418518D+00-1.862645149231D-09 0.000000000000D+00
13 22  3  7 22 15  0.0-1.917034387589D-05-0.000000000000D+00 7.920000000000D+04
   -1.034316162109D+04 4.543733596802D-01 9.313225746155D-10 0.000000000000D+00
    2.161829638672D+04-1.114964485168D+00 9.313225746155D-10-2.000000000000D+00
    8.709451171875D+03 3.299325942993D+00-1.862645149231D-09 0.000000000000D+00
12 22  3  7 22 15  0.0 1.737009733915D-05 0.000000000000D+00 7.920000000000D+04
   -1.258723291016D+04 8.550853729248D-01 9.313225746155D-10 0.000000000000D+00
    7.619643554688D+03-2.719717025757D+00-9.313225746155D-10-1.000000000000D+00
    2.084928662109D+04 1.513557434082D+00-1.862645149231D-09 0.000000000000D+00
14 22  3  7 22 15  0.0 7.513258606195D-05 0.000000000000D+00 7.920000000000D+04
   -1.784672851562D+03-2.500371932983D-01 9.313225746155D-10 0.000000000000D+00
    2.348513378906D+04 1.324910163879D+00 2.793967723846D-09-7.000000000000D+00
   -9.804897460938D+03 3.216012001038D+00-0.000000000000D+00 0.000000000000D+00
17 22  3  7 22 15  0.0 5.076471716166D-04 2.728484105319D-12 7.920000000000D+04
    9.761954589844D+03-1.135132789612D+00 9.313225746155D-10 0.000000000000D+00
    1.930580810547D+04-1.473693847656D+00 2.793967723846D-09 4.000000000000D+00
   -1.348026074219D+04-2.932943344116D+00 0.000000000000D+00 0.000000000000D+00
24 22  3  7 22 15  0.0 8.335430175066D-05 1.818989403546D-12 7.920000000000D+04
   -4.824396972656D+03-2.085984230042D+00 0.000000000000D+00 0.000000000000D+00
    1.046891552734D+04-2.319496154785D+00 1.862645149231D-09 2.000000000000D+00
   -2.273570507812D+04-6.253948211670D-01 9.313225746155D-10 0.000000000000D+00
15 22  3  7 22 15  0.0 9.770505130291D-05-0.000000000000D+00 8.022000000000D+04
    7.468354003906D+03-7.788200378418D-01 0.000000000000D+00 0.000000000000D+00
    1.135610937500D+04 2.852540969849D+00 2.793967723846D-09 0.000000000000D+00
   -2.157170556641D+04 1.231468200684D+00 9.313225746155D-10 0.000000000000D+00
18 22  3  7 22 45  0.0 1.095794141293D-04 9.094947017729D-13 8.100000000000D+04
    1.841026220703D+04-2.221288681030D-01 9.313225746155D-10 0.000000000000D+00
    1.733450878906D+04-5.017929077148D-01 2.793967723846D-09-3.000000000000D+00
   -3.569398437500D+03-3.560323715210D+00-0.000000000000D+00 0.000000000000D+00
 2 22  3  7 22 45  0.0 5.118120461702D-04 9.094947017729D-13 8.100000000000D+04
   -1.977900634766D+04-1.235152244568D+00 9.313225746155D-10 0.000000000000D+00
    1.252131835938D+04 6.305608749390D-01-0.000000000000D+00-4.000000000000D+00
    1.010247656250D+04-3.219908714294D+00-9.313225746155D-10 0.000000000000D+00
13 22  3  7 22 45  0.0-1.917127519846D-05-0.000000000000D+00 8.100000000000D+04
   -9.548473144531D+03 3.889417648315D-01 9.313225746155D-10 0.000000000000D+00
    1.887260449219D+04-1.917531967163D+00 0.000000000000D+00-2.000000000000D+00
    1.423423486328D+04 2.799368858337D+00-1.862645149231D-09 0.000000000000D+00
14 22  3  7 22 45  0.0 7.513351738453D-05 0.000000000000D+00 8.100000000000D+04
   -1.925180664062D+03 5.951309204102D-02 1.862645149231D-09 0.000000000000D+00
    2.516908203125D+04 5.231237411499D-01 1.862645149231D-09-7.000000000000D+00
   -3.711944824219D+03 3.509985923767D+00-9.313225746155D-10 0.000000000000D+00
15 22  3  7 22 45  0.0 9.770505130291D-05-0.000000000000D+00 8.100000000000D+04
    6.505874511719D+03-2.995033264160D-01 9.313225746155D-10 0.000000000000D+00
    1.624065917969D+04 2.526207923889D+00 2.793967723846D-09 0.000000000000D+00
   -1.854882763672D+04 2.105441093445D+00 0.000000000000D+00 0.000000000000D+00
17 22  3  7 22 45  0.0 5.076518282294D-04 2.728484105319D-12 8.100000000000D+04
    7.075699707031D+03-1.843748092651D+00 9.313225746155D-10 0.000000000000D+00
    1.641963281250D+04-1.685767173767D+00 2.793967723846D-09 4.000000000000D+00
   -1.816896484375D+04-2.242855072021D+00 0.000000000000D+00 0.000000000000D+00
 3 22  3  7 22 45  0.0 5.272496491671D-05 9.094947017729D-13 8.163000000000D+04
   -4.322737792969D+03-2.747411727905D+00 9.313225746155D-10 0.000000000000D+00
    1.270351904297D+04 1.114134788513D+00-0.000000000000D+00 5.000000000000D+00
    2.172865478516D+04-1.205577850342D+00-2.793967723846D-09 0.000000000000D+00
18 22  3  7 23 15  0.0 1.095822080970D-04 9.094947017729D-13 8.280000000000D+04
    1.730747021484D+04-1.014693260193D+00 1.862645149231D-09 0.000000000000D+00
    1.603300927734D+04-9.023294448853D-01 2.793967723846D-09-3.000000000000D+00
   -9.757853515625D+03-3.271183967590D+00-0.000000000000D+00 0.000000000000D+00
 2 22  3  7 23 15  0.0 5.118139088154D-04 0.000000000000D+00 8.280000000000D+04
   -2.124670605469D+04-3.970251083374D-01 0.000000000000D+00 0.000000000000D+00
    1.349096875000D+04 4.044141769409D-01-0.000000000000D+00-4.000000000000D+00
    3.990332519531D+03-3.527244567871D+00-9.313225746155D-10 0.000000000000D+00
 3 22  3  7 23 15  0.0 5.272682756186D-05 9.094947017729D-13 8.280000000000D+04
   -8.807514160156D+03-2.202054023743D+00 9.313225746155D-10 0.000000000000D+00
    1.491464062500D+04 1.306191444397D+00-0.000000000000D+00 5.000000000000D+00
    1.874923583984D+04-2.083686828613D+00-1.862645149231D-09 0.000000000000D+00
13 22  3  7 23 15  0.0-1.917313784361D-05-0.000000000000D+00 8.280000000000D+04
   -9.072187500000D+03 1.094713211060D-01 9.313225746155D-10 0.000000000000D+00
    1.481269677734D+04-2.558371543884D+00-0.000000000000D+00-2.000000000000D+00
    1.865663574219D+04 2.082411766052D+00-1.862645149231D-09 0.000000000000D+00
14 22  3  7 23 15  0.0 7.513444870710D-05 0.000000000000D+00 8.280000000000D+04
   -1.707081054688D+03 1.427412033081D-01 1.862645149231D-09 0.000000000000D+00
    2.531807226562D+04-3.620414733887D-01 9.313225746155D-10-7.000000000000D+00
    2.667867675781D+03 3.532691001892D+00-9.313225746155D-10 0.000000000000D+00
15 22  3  7 23 15  0.0 9.770411998034D-05-0.000000000000D+00 8.280000000000D+04
    6.327864746094D+03 7.671451568604D-02 1.862645149231D-09 0.000000000000D+00
    2.028988671875D+04 1.933647155762D+00 2.793967723846D-09 0.000000000000D+00
   -1.409020312500D+04 2.816367149353D+00-0.000000000000D+00 0.000000000000D+00
